NORAD_CAT_ID,OBJECT_NAME,OBJECT_TYPE,EPOCH,MEAN_MOTION,ECCENTRICITY,INCLINATION,RA_OF_ASC_NODE,ARG_OF_PERICENTER,MEAN_ANOMALY,BSTAR,MEAN_MOTION_DOT,MEAN_MOTION_DDOT,TLE_LINE0,TLE_LINE1,TLE_LINE2,SEMIMAJOR_AXIS,PERIOD,APOGEE,PERIGEE,DECAYED
55676.0,STARLINK-5300,PAYLOAD,2023-07-13 02:58:28,15.69915384,0.0003297,69.9997,101.2522,269.3951,90.6867,-9.5849e-06,-1.365e-05,0.0,0 STARLINK-5300,1 55676U 23021BA  23194.12394064 -.00001365  00000-0 -95849-5 0  9992,2 55676  69.9997 101.2522 0003297 269.3951  90.6867 15.69915384 23359,6737.276,91.725,361.362,356.92,0.0
55676.0,STARLINK-5300,PAYLOAD,2023-07-14 04:58:15,15.69927822,0.0003661,69.9998,98.2083,258.0598,102.0187,2.4092e-05,2.685e-05,0.0,0 STARLINK-5300,1 55676U 23021BA  23195.20712219  .00002685  00000-0  24092-4 0  9993,2 55676  69.9998  98.2083 0003661 258.0598 102.0187 15.69927822 23526,6737.24,91.724,361.572,356.639,0.0
55676.0,STARLINK-5300,PAYLOAD,2023-07-15 03:54:32,15.69920714,0.0003134,70.0003,95.5209,272.1586,87.9251,4.1368e-06,2.85e-06,0.0,0 STARLINK-5300,1 55676U 23021BA  23196.16287564  .00000285  00000-0  41368-5 0  9999,2 55676  70.0003  95.5209 0003134 272.1586  87.9251 15.69920714 23677,6737.261,91.724,361.237,357.014,0.0
55676.0,STARLINK-5300,PAYLOAD,2023-07-16 10:29:34,15.69925439,0.0003753,69.9992,91.9368,265.9261,94.1506,9.4119e-06,9.19e-06,0.0,0 STARLINK-5300,1 55676U 23021BA  23197.43720782  .00000919  00000-0  94119-5 0  9990,2 55676  69.9992  91.9368 0003753 265.9261  94.1506 15.69925439 23878,6737.247,91.724,361.641,356.584,0.0
55676.0,STARLINK-5300,PAYLOAD,2023-07-18 00:43:22,15.69929049,0.0003591,69.9991,87.4577,261.5925,98.4864,2.1115e-05,2.327e-05,0.0,0 STARLINK-5300,1 55676U 23021BA  23199.03012270  .00002327  00000-0  21115-4 0  9994,2 55676  69.9991  87.4577 0003591 261.5925  98.4864 15.69929049 24122,6737.237,91.724,361.521,356.683,0.0
55676.0,STARLINK-5300,PAYLOAD,2023-07-19 02:43:10,15.69924732,0.0003411,69.9993,84.4132,259.219,100.8621,3.0226e-06,1.51e-06,0.0,0 STARLINK-5300,1 55676U 23021BA  23200.11331126  .00000151  00000-0  30226-5 0  9997,2 55676  69.9993  84.4132 0003411 259.2190 100.8621 15.69924732 24298,6737.249,91.724,361.412,356.816,0.0
55676.0,STARLINK-5300,PAYLOAD,2023-07-21 02:07:29,15.69904155,0.000285,69.9994,78.8587,249.2104,110.8787,-4.4022e-05,-5.497e-05,0.0,0 STARLINK-5300,1 55676U 23021BA  23202.08853687 -.00005497  00000-0 -44022-4 0  9994,2 55676  69.9994  78.8587 0002850 249.2104 110.8787 15.69904155 24606,6737.308,91.725,361.093,357.253,0.0
55676.0,STARLINK-5300,PAYLOAD,2023-07-24 01:59:49,15.69929339,0.0003414,69.9987,70.4385,271.5154,88.565,2.879e-05,3.251e-05,0.0,0 STARLINK-5300,1 55676U 23021BA  23205.08321601  .00003251  00000-0  28790-4 0  9991,2 55676  69.9987  70.4385 0003414 271.5154  88.5650 15.69929339 25389,6737.236,91.724,361.401,356.801,0.0
55676.0,STARLINK-5300,PAYLOAD,2023-07-25 02:27:51,15.69927083,0.0003888,69.9966,67.5724,271.3058,88.7692,2.5811e-05,2.892e-05,0.0,0 STARLINK-5300,1 55676U 23021BA  23206.10268244  .00002892  00000-0  25811-4 0  9999,2 55676  69.9966  67.5724 0003888 271.3058  88.7692 15.69927083 25546,6737.243,91.724,361.727,356.488,0.0
55676.0,STARLINK-5300,PAYLOAD,2023-07-25 22:20:38,15.6993834,0.0004219,69.9968,65.2429,278.2191,81.8526,4.5777e-05,5.299e-05,0.0,0 STARLINK-5300,1 55676U 23021BA  23206.93099637  .00005299  00000-0  45777-4 0  9995,2 55676  69.9968  65.2429 0004219 278.2191  81.8526 15.69938340 25670,6737.21,91.723,361.918,356.233,0.0
55676.0,STARLINK-5300,PAYLOAD,2023-07-26 18:13:25,15.69925828,0.000385,69.9998,62.9118,283.161,76.9156,2.5401e-05,2.843e-05,0.0,0 STARLINK-5300,1 55676U 23021BA  23207.75931953  .00002843  00000-0  25401-4 0  9996,2 55676  69.9998  62.9118 0003850 283.1610  76.9156 15.69925828 25494,6737.246,91.724,361.705,356.517,0.0
55676.0,STARLINK-5300,PAYLOAD,2023-07-26 21:16:55,15.69925425,0.0004973,69.9973,62.5592,262.4412,97.6219,2.6359e-05,2.958e-05,0.0,0 STARLINK-5300,1 55676U 23021BA  23207.88674908  .00002958  00000-0  26359-4 0  9994,2 55676  69.9973  62.5592 0004973 262.4412  97.6219 15.69925425 25826,6737.247,91.724,362.463,355.762,0.0
55676.0,STARLINK-5300,PAYLOAD,2023-07-27 00:20:25,15.699376,0.0004236,69.9982,62.1974,269.7202,90.3508,5.3934e-05,6.281e-05,0.0,0 STARLINK-5300,1 55676U 23021BA  23208.01417960  .00006281  00000-0  53934-4 0  9995,2 55676  69.9982  62.1974 0004236 269.7202  90.3508 15.69937600 25532,6737.213,91.723,361.931,356.224,0.0
55676.0,STARLINK-5300,PAYLOAD,2023-07-27 07:59:11,15.69911709,0.0003561,69.9991,61.3015,269.7758,90.303,-1.3033e-05,-1.779e-05,0.0,0 STARLINK-5300,1 55676U 23021BA  23208.33277568 -.00001779  00000-0 -13033-4 0  9993,2 55676  69.9991  61.3015 0003561 269.7758  90.3030 15.69911709 25582,6737.287,91.725,361.551,356.752,0.0
55676.0,STARLINK-5300,PAYLOAD,2023-07-27 14:06:12,15.69917486,0.0003833,70.0002,60.5866,274.7939,85.2819,-3.5685e-06,-6.42e-06,0.0,0 STARLINK-5300,1 55676U 23021BA  23208.58764000 -.00000642  00000-0 -35685-5 0  9998,2 55676  70.0002  60.5866 0003833 274.7939  85.2819 15.69917486 25937,6737.27,91.725,361.717,356.553,0.0
55676.0,STARLINK-5300,PAYLOAD,2023-07-27 21:44:57,15.69935392,0.0003957,69.9991,59.69,271.9504,88.1239,9.5164e-05,0.00011252,0.0,0 STARLINK-5300,1 55676U 23021BA  23208.90621835  .00011252  00000-0  95164-4 0  9996,2 55676  69.9991  59.6900 0003957 271.9504  88.1239 15.69935392 25982,6737.219,91.724,361.75,356.418,0.0
55676.0,STARLINK-5300,PAYLOAD,2023-07-27 23:16:42,15.69946783,0.0003825,70.0003,59.5104,271.7285,88.3473,0.00020839,0.00024944,0.0,0 STARLINK-5300,1 55676U 23021BA  23208.96993517  .00024944  00000-0  20839-3 0  9999,2 55676  70.0003  59.5104 0003825 271.7285  88.3473 15.69946783 25687,6737.186,91.723,361.628,356.474,0.0
55676.0,STARLINK-5300,PAYLOAD,2023-07-28 13:02:26,15.70008551,0.0004044,70.0002,57.8979,271.9247,88.1486,0.00030521,0.00036781,0.0,0 STARLINK-5300,1 55676U 23021BA  23209.54336126  .00036781  00000-0  30521-3 0  9992,2 55676  70.0002  57.8979 0004044 271.9247  88.1486 15.70008551 26082,6737.01,91.719,361.599,356.15,0.0
55676.0,STARLINK-5300,PAYLOAD,2023-07-28 17:37:41,15.69921952,0.0005052,69.9992,57.3603,277.3658,82.6964,-0.00025395,-0.00030649,0.0,0 STARLINK-5300,1 55676U 23021BA  23209.73451113 -.00030649  00000-0 -25395-3 0  9999,2 55676  69.9992  57.3603 0005052 277.3658  82.6964 15.69921952 25808,6737.257,91.724,362.526,355.719,0.0
55676.0,STARLINK-5300,PAYLOAD,2023-07-29 01:16:27,15.69921958,0.0003902,69.9989,56.4643,268.0013,92.0736,-0.00011544,-0.00014071,0.0,0 STARLINK-5300,1 55676U 23021BA  23210.05309865 -.00014071  00000-0 -11544-3 0  9994,2 55676  69.9989  56.4643 0003902 268.0013  92.0736 15.69921958 25855,6737.257,91.724,361.751,356.493,0.0
55676.0,STARLINK-5300,PAYLOAD,2023-07-29 16:34:00,15.69900076,0.0003588,69.9995,54.6728,266.648,93.4305,4.0569e-05,4.663e-05,0.0,0 STARLINK-5300,1 55676U 23021BA  23210.69028178  .00004663  00000-0  40569-4 0  9993,2 55676  69.9995  54.6728 0003588 266.6480  93.4305 15.69900076 25954,6737.32,91.726,361.602,356.768,0.0
55676.0,STARLINK-5300,PAYLOAD,2023-07-30 17:02:02,15.69921718,0.0003902,69.9995,51.807,271.2871,88.7877,8.3898e-05,9.887e-05,0.0,0 STARLINK-5300,1 55676U 23021BA  23211.70975662  .00009887  00000-0  83898-4 0  9990,2 55676  69.9995  51.8070 0003902 271.2871  88.7877 15.69921718 26115,6737.258,91.724,361.752,356.494,0.0
55676.0,STARLINK-5300,PAYLOAD,2023-07-31 00:40:49,15.69907576,0.0003022,69.9995,50.9086,273.2116,86.8734,2.5913e-06,9.9e-07,0.0,0 STARLINK-5300,1 55676U 23021BA  23212.02834507  .00000099  00000-0  25913-5 0  9999,2 55676  69.9995  50.9086 0003022 273.2116  86.8734 15.69907576 26161,6737.298,91.725,361.199,357.127,0.0
55676.0,STARLINK-5300,PAYLOAD,2023-07-31 06:47:49,15.69920714,0.0003628,69.9989,50.1938,268.8213,91.2567,3.7585e-05,4.308e-05,0.0,0 STARLINK-5300,1 55676U 23021BA  23212.28320890  .00004308  00000-0  37585-4 0  9996,2 55676  69.9989  50.1938 0003628 268.8213  91.2567 15.69920714 26200,6737.261,91.724,361.57,356.682,0.0
55676.0,STARLINK-5300,PAYLOAD,2023-07-31 22:05:20,15.69910191,0.0003802,69.9998,48.4026,268.0128,92.0632,-6.3157e-05,-7.796e-05,0.0,0 STARLINK-5300,1 55676U 23021BA  23212.92037566 -.00007796  00000-0 -63157-4 0  9992,2 55676  69.9998  48.4026 0003802 268.0128  92.0632 15.69910191 26300,6737.291,91.725,361.717,356.594,0.0
55676.0,STARLINK-5300,PAYLOAD,2023-08-01 16:26:22,15.69924536,0.0003745,70.0001,46.2528,273.397,86.6797,4.932e-05,5.722e-05,0.0,0 STARLINK-5300,1 55676U 23021BA  23213.68497767  .00005722  00000-0  49320-4 0  9990,2 55676  70.0001  46.2528 0003745 273.3970  86.6797 15.69924536 26423,6737.25,91.724,361.638,356.592,0.0
55676.0,STARLINK-5300,PAYLOAD,2023-08-02 23:01:24,15.69935663,0.000361,70.0003,42.6708,275.2358,84.8426,5.621e-05,6.555e-05,0.0,0 STARLINK-5300,1 55676U 23021BA  23214.95930855  .00006555  00000-0  56210-4 0  9992,2 55676  70.0003  42.6708 0003610 275.2358  84.8426 15.69935663 26621,6737.218,91.724,361.515,356.651,0.0
55676.0,STARLINK-5300,PAYLOAD,2023-08-03 15:50:40,15.69921805,0.0003098,70.0013,40.6997,255.8238,104.2614,7.0221e-06,6.32e-06,0.0,0 STARLINK-5300,1 55676U 23021BA  23215.66019657  .00000632  00000-0  70221-5 0  9998,2 55676  70.0013  40.6997 0003098 255.8238 104.2614 15.69921805 26732,6737.258,91.724,361.21,357.036,0.0
55676.0,STARLINK-5300,PAYLOAD,2023-08-04 23:57:28,15.69937228,0.0003596,70.0006,36.9386,269.2294,90.849,5.0831e-05,5.907e-05,0.0,0 STARLINK-5300,1 55676U 23021BA  23216.99824437  .00005907  00000-0  50831-4 0  9999,2 55676  70.0006  36.9386 0003596 269.2294  90.8490 15.69937228 26949,6737.214,91.723,361.501,356.656,0.0
55676.0,STARLINK-5300,PAYLOAD,2023-08-05 15:14:59,15.69936519,0.000354,70.0011,35.1459,266.7293,93.3498,3.6639e-05,4.197e-05,0.0,0 STARLINK-5300,1 55676U 23021BA  23217.63540972  .00004197  00000-0  36639-4 0  9990,2 55676  70.0011  35.1459 0003540 266.7293  93.3498 15.69936519 27047,6737.216,91.723,361.466,356.696,0.0
